{
  "type": "FeatureCollection",
  "features": [
    {
      "type": "Feature",
      "properties": {
        "norad_id": 55973,
        "name": "TIANMU-1 03",
        "group": "weather",
        "lat": -70.93393041168129,
        "lon": -179.8196026202196,
        "alt_km": 450.99277138339676,
        "timestamp": "2025-12-20T20:38:44.088643+00:00",
        "meta_object_name": "TIANMU-1 03",
        "meta_object_id": "2023-039A",
        "meta_epoch": "2025-12-20T14:43:34.252896",
        "meta_mean_motion": 15.41136949,
        "meta_eccentricity": 0.00040447,
        "meta_inclination": 97.5105,
        "meta_ra_of_asc_node": 157.486,
        "meta_arg_of_pericenter": 38.5633,
        "meta_mean_anomaly": 321.5901,
        "meta_ephemeris_type": 0,
        "meta_classification_type": "U",
        "meta_norad_cat_id": 55973,
        "meta_element_set_no": 999,
        "meta_rev_at_epoch": 15327,
        "meta_bstar": 0.00025692646,
        "meta_mean_motion_dot": 0.00010559,
        "meta_mean_motion_ddot": 0,
        "tle_line1": "1 55973U 23039A   25354.61359089  .00010559  00000+0  25693-3 0  9993",
        "tle_line2": "2 55973  97.5105 157.4860 0004044  38.5633 321.5901 15.41136949153271"
      },
      "geometry": {
        "type": "Point",
        "coordinates": [
          -179.8196026202196,
          -70.93393041168129
        ]
      }
    },
    {
      "type": "Feature",
      "properties": {
        "norad_id": 55974,
        "name": "TIANMU-1 04",
        "group": "weather",
        "lat": 50.85691997391198,
        "lon": 147.60762101173518,
        "alt_km": 434.12152362606685,
        "timestamp": "2025-12-20T20:38:44.088654+00:00",
        "meta_object_name": "TIANMU-1 04",
        "meta_object_id": "2023-039B",
        "meta_epoch": "2025-12-20T14:11:29.200416",
        "meta_mean_motion": 15.41477613,
        "meta_eccentricity": 0.00046523,
        "meta_inclination": 97.5036,
        "meta_ra_of_asc_node": 156.651,
        "meta_arg_of_pericenter": 32.642,
        "meta_mean_anomaly": 327.5114,
        "meta_ephemeris_type": 0,
        "meta_classification_type": "U",
        "meta_norad_cat_id": 55974,
        "meta_element_set_no": 999,
        "meta_rev_at_epoch": 15327,
        "meta_bstar": 0.00025246101,
        "meta_mean_motion_dot": 0.00010493,
        "meta_mean_motion_ddot": 0,
        "tle_line1": "1 55974U 23039B   25354.59131019  .00010493  00000+0  25246-3 0  9993",
        "tle_line2": "2 55974  97.5036 156.6510 0004652  32.6420 327.5114 15.41477613153270"
      },
      "geometry": {
        "type": "Point",
        "coordinates": [
          147.60762101173518,
          50.85691997391198
        ]
      }
    },
    {
      "type": "Feature",
      "properties": {
        "norad_id": 55975,
        "name": "TIANMU-1 05",
        "group": "weather",
        "lat": 70.78011100645016,
        "lon": 135.19014469453458,
        "alt_km": 433.35394913243545,
        "timestamp": "2025-12-20T20:38:44.088664+00:00",
        "meta_object_name": "TIANMU-1 05",
        "meta_object_id": "2023-039C",
        "meta_epoch": "2025-12-20T15:39:30.170592",
        "meta_mean_motion": 15.41094882,
        "meta_eccentricity": 0.00041004,
        "meta_inclination": 97.5083,
        "meta_ra_of_asc_node": 157.2065,
        "meta_arg_of_pericenter": 56.9437,
        "meta_mean_anomaly": 303.2203,
        "meta_ephemeris_type": 0,
        "meta_classification_type": "U",
        "meta_norad_cat_id": 55975,
        "meta_element_set_no": 999,
        "meta_rev_at_epoch": 15326,
        "meta_bstar": 0.00024509949,
        "meta_mean_motion_dot": 0.00010054,
        "meta_mean_motion_ddot": 0,
        "tle_line1": "1 55975U 23039C   25354.65243253  .00010054  00000+0  24510-3 0  9991",
        "tle_line2": "2 55975  97.5083 157.2065 0004100  56.9437 303.2203 15.41094882153262"
      },
      "geometry": {
        "type": "Point",
        "coordinates": [
          135.19014469453458,
          70.78011100645016
        ]
      }
    },
    {
      "type": "Feature",
      "properties": {
        "norad_id": 55976,
        "name": "TIANMU-1 06",
        "group": "weather",
        "lat": 40.46126147978519,
        "lon": 151.43183996239293,
        "alt_km": 435.52110261535745,
        "timestamp": "2025-12-20T20:38:44.088675+00:00",
        "meta_object_name": "TIANMU-1 06",
        "meta_object_id": "2023-039D",
        "meta_epoch": "2025-12-20T14:14:14.364384",
        "meta_mean_motion": 15.41529317,
        "meta_eccentricity": 0.00044,
        "meta_inclination": 97.5093,
        "meta_ra_of_asc_node": 157.6172,
        "meta_arg_of_pericenter": 51.3142,
        "meta_mean_anomaly": 308.8497,
        "meta_ephemeris_type": 0,
        "meta_classification_type": "U",
        "meta_norad_cat_id": 55976,
        "meta_element_set_no": 999,
        "meta_rev_at_epoch": 15327,
        "meta_bstar": 0.0002523152,
        "meta_mean_motion_dot": 0.00010504,
        "meta_mean_motion_ddot": 0,
        "tle_line1": "1 55976U 23039D   25354.59322181  .00010504  00000+0  25232-3 0  9995",
        "tle_line2": "2 55976  97.5093 157.6172 0004400  51.3142 308.8497 15.41529317153275"
      },
      "geometry": {
        "type": "Point",
        "coordinates": [
          151.43183996239293,
          40.46126147978519
        ]
      }
    },
    {
      "type": "Feature",
      "properties": {
        "norad_id": 56232,
        "name": "FENGYUN 3G",
        "group": "weather",
        "lat": -6.291172365137365,
        "lon": 10.84719208550335,
        "alt_km": 399.78897724232866,
        "timestamp": "2025-12-20T20:38:44.088687+00:00",
        "meta_object_name": "FENGYUN 3G",
        "meta_object_id": "2023-055A",
        "meta_epoch": "2025-12-20T13:40:01.299936",
        "meta_mean_motion": 15.54080275,
        "meta_eccentricity": 0.00093682,
        "meta_inclination": 49.9914,
        "meta_ra_of_asc_node": 187.0363,
        "meta_arg_of_pericenter": 183.7247,
        "meta_mean_anomaly": 176.3652,
        "meta_ephemeris_type": 0,
        "meta_classification_type": "U",
        "meta_norad_cat_id": 56232,
        "meta_element_set_no": 999,
        "meta_rev_at_epoch": 15224,
        "meta_bstar": 0.00032602326,
        "meta_mean_motion_dot": 0.00021191,
        "meta_mean_motion_ddot": 0,
        "tle_line1": "1 56232U 23055A   25354.56945949  .00021191  00000+0  32602-3 0  9992",
        "tle_line2": "2 56232  49.9914 187.0363 0009368 183.7247 176.3652 15.54080275152243"
      },
      "geometry": {
        "type": "Point",
        "coordinates": [
          10.84719208550335,
          -6.291172365137365
        ]
      }
    },
    {
      "type": "Feature",
      "properties": {
        "norad_id": 57166,
        "name": "METEOR-M2 3",
        "group": "weather",
        "lat": 80.72376118584626,
        "lon": -63.22272035030548,
        "alt_km": 805.1311920445542,
        "timestamp": "2025-12-20T20:38:44.088701+00:00",
        "meta_object_name": "METEOR-M2 3",
        "meta_object_id": "2023-091A",
        "meta_epoch": "2025-12-20T15:08:59.669952",
        "meta_mean_motion": 14.24026965,
        "meta_eccentricity": 0.00034652,
        "meta_inclination": 98.6366,
        "meta_ra_of_asc_node": 48.0324,
        "meta_arg_of_pericenter": 345.1743,
        "meta_mean_anomaly": 14.9334,
        "meta_ephemeris_type": 0,
        "meta_classification_type": "U",
        "meta_norad_cat_id": 57166,
        "meta_element_set_no": 999,
        "meta_rev_at_epoch": 12910,
        "meta_bstar": 1.9282346e-05,
        "meta_mean_motion_dot": 1e-08,
        "meta_mean_motion_ddot": 0,
        "tle_line1": "1 57166U 23091A   25354.63124618  .00000001  00000+0  19282-4 0  9996",
        "tle_line2": "2 57166  98.6366  48.0324 0003465 345.1743  14.9334 14.24026965129107"
      },
      "geometry": {
        "type": "Point",
        "coordinates": [
          -63.22272035030548,
          80.72376118584626
        ]
      }
    },
    {
      "type": "Feature",
      "properties": {
        "norad_id": 57399,
        "name": "TIANMU-1 07",
        "group": "weather",
        "lat": 76.40008707578487,
        "lon": 12.59959423121336,
        "alt_km": 470.61277064191927,
        "timestamp": "2025-12-20T20:38:44.088711+00:00",
        "meta_object_name": "TIANMU-1 07",
        "meta_object_id": "2023-101A",
        "meta_epoch": "2025-12-20T14:01:03.552960",
        "meta_mean_motion": 15.28174409,
        "meta_eccentricity": 0.00052919,
        "meta_inclination": 97.2866,
        "meta_ra_of_asc_node": 44.2611,
        "meta_arg_of_pericenter": 61.5583,
        "meta_mean_anomaly": 298.619,
        "meta_ephemeris_type": 0,
        "meta_classification_type": "U",
        "meta_norad_cat_id": 57399,
        "meta_element_set_no": 999,
        "meta_rev_at_epoch": 13435,
        "meta_bstar": 0.00017229696,
        "meta_mean_motion_dot": 4.66e-05,
        "meta_mean_motion_ddot": 0,
        "tle_line1": "1 57399U 23101A   25354.58406890  .00004660  00000+0  17230-3 0  9990",
        "tle_line2": "2 57399  97.2866  44.2611 0005291  61.5583 298.6190 15.28174409134358"
      },
      "geometry": {
        "type": "Point",
        "coordinates": [
          12.59959423121336,
          76.40008707578487
        ]
      }
    }
  ]
}